IRIDIUM 159             
1 43578U 18061K   25113.75789936  .00000236  00000+0  77313-4 0  9994
2 43578  86.3987 231.9231 0002316  91.9978 268.1483 14.34218085353263
IRIDIUM 180             
1 43922U 19002A   25112.57133094  .00000041  00000+0  76777-5 0  9998
2 43922  86.4016 169.4036 0002223  91.4629 268.6821 14.34217844328741
IRIDIUM 176             
1 43923U 19002B   25113.73028180  .00001556  00000+0  24279-3 0  9997
2 43923  86.6138 168.9184 0001878  87.6510 272.4923 14.72255733337532
IRIDIUM 168             
1 43924U 19002C   25112.63475617  .00000033  00000+0  47677-5 0  9995
2 43924  86.4019 169.4426 0002367  95.5269 264.6197 14.34217213328699
IRIDIUM 173             
1 43925U 19002D   25112.76160871  .00000064  00000+0  15966-4 0  9992
2 43925  86.4013 169.2958 0002105  92.4241 267.7196 14.34217716328699
IRIDIUM 169             
1 43926U 19002E   25112.64849306  .00000641  00000+0  20290-3 0  9993
2 43926  86.4289 200.9067 0000927 124.4346 235.6940 14.38612751329763
IRIDIUM 172             
1 43927U 19002F   25112.61572928  .00000234  00000+0  76440-4 0  9991
2 43927  86.4015 169.3632 0002427  87.5636 272.5837 14.34217954328682
IRIDIUM 175             
1 43928U 19002G   25113.04545364  .00000669  00000+0  10219-3 0  9997
2 43928  86.1470 124.8690 0002273 116.8279 243.3170 14.72247181337428
